{"type": "FeatureCollection", "features": [ {"type": "Feature", "properties": {"norad_id": 39122, "name": "EUTELSAT 117 WEST A", "group": "eutelsat", "lat": -0.009394255056488707, "lon": -45.59566838697118, "alt_km": 35778.1052671691, "timestamp": "2025-12-21T22:41:41.119130+00:00", "meta": {"OBJECT_NAME": "EUTELSAT 117 WEST A", "OBJECT_ID": "2013-012A", "EPOCH": "2025-12-21T12:40:26.681376", "MEAN_MOTION": 1.00270494, "ECCENTRICITY": 0.00026032, "INCLINATION": 0.0278, "RA_OF_ASC_NODE": 305.7819, "ARG_OF_PERICENTER": 327.6163, "MEAN_ANOMALY": 250.2746, "EPHEMERIS_TYPE": 0, "CLASSIFICATION_TYPE": "U", "NORAD_CAT_ID": 39122, "ELEMENT_SET_NO": 999, "REV_AT_EPOCH": 4665, "BSTAR": 0, "MEAN_MOTION_DOT": 1e-07, "MEAN_MOTION_DDOT": 0}, "tle": {"line1": "1 39122U 13012A   25355.52808659  .00000010  00000+0  00000+0 0  9996", "line2": "2 39122   0.0278 305.7819 0002603 327.6163 250.2746  1.00270494 46652"}}, "geometry": {"type": "Point", "coordinates": [-45.59566838697118, -0.009394255056488707]}}, {"type": "Feature", "properties": {"norad_id": 39163, "name": "EUTELSAT 7B", "group": "eutelsat", "lat": 0.08889035778784278, "lon": 78.21012294376216, "alt_km": 35794.42186562361, "timestamp": "2025-12-21T22:41:41.119143+00:00", "meta": {"OBJECT_NAME": "EUTELSAT 7B", "OBJECT_ID": "2013-022A", "EPOCH": "2025-12-21T13:13:55.057152", "MEAN_MOTION": 1.00271027, "ECCENTRICITY": 0.00043882, "INCLINATION": 0.0649, "RA_OF_ASC_NODE": 1.5578, "ARG_OF_PERICENTER": 320.6858, "MEAN_ANOMALY": 333.5998, "EPHEMERIS_TYPE": 0, "CLASSIFICATION_TYPE": "U", "NORAD_CAT_ID": 39163, "ELEMENT_SET_NO": 999, "REV_AT_EPOCH": 4616, "BSTAR": 0, "MEAN_MOTION_DOT": 7e-07, "MEAN_MOTION_DDOT": 0}, "tle": {"line1": "1 39163U 13022A   25355.55133168  .00000070  00000+0  00000+0 0  9997", "line2": "2 39163   0.0649   1.5578 0004388 320.6858 333.5998  1.00271027 46161"}}, "geometry": {"type": "Point", "coordinates": [78.21012294376216, 0.08889035778784278]}}, {"type": "Feature", "properties": {"norad_id": 39612, "name": "EXPRESS-AT1", "group": "eutelsat", "lat": 0.014254569914825377, "lon": 127.170832793557, "alt_km": 35782.34226919308, "timestamp": "2025-12-21T22:41:41.119155+00:00", "meta": {"OBJECT_NAME": "EXPRESS-AT1", "OBJECT_ID": "2014-010A", "EPOCH": "2025-12-21T13:27:53.717760", "MEAN_MOTION": 1.00272689, "ECCENTRICITY": 8.523e-05, "INCLINATION": 0.0197, "RA_OF_ASC_NODE": 308.1521, "ARG_OF_PERICENTER": 195.1273, "MEAN_ANOMALY": 205.0741, "EPHEMERIS_TYPE": 0, "CLASSIFICATION_TYPE": "U", "NORAD_CAT_ID": 39612, "ELEMENT_SET_NO": 999, "REV_AT_EPOCH": 4303, "BSTAR": 0, "MEAN_MOTION_DOT": 1.01e-06, "MEAN_MOTION_DDOT": 0}, "tle": {"line1": "1 39612U 14010A   25355.56103840  .00000101  00000+0  00000+0 0  9994", "line2": "2 39612   0.0197 308.1521 0000852 195.1273 205.0741  1.00272689 43037"}}, "geometry": {"type": "Point", "coordinates": [127.170832793557, 0.014254569914825377]}}, {"type": "Feature", "properties": {"norad_id": 39613, "name": "EXPRESS-AT2", "group": "eutelsat", "lat": -0.030143584984411886, "lon": -148.9889819278603, "alt_km": 35785.90436550063, "timestamp": "2025-12-21T22:41:41.119167+00:00", "meta": {"OBJECT_NAME": "EXPRESS-AT2", "OBJECT_ID": "2014-010B", "EPOCH": "2025-12-21T03:35:19.372992", "MEAN_MOTION": 1.00270951, "ECCENTRICITY": 0.00010602, "INCLINATION": 0.019, "RA_OF_ASC_NODE": 327.4725, "ARG_OF_PERICENTER": 327.2965, "MEAN_ANOMALY": 348.8895, "EPHEMERIS_TYPE": 0, "CLASSIFICATION_TYPE": "U", "NORAD_CAT_ID": 39613, "ELEMENT_SET_NO": 999, "REV_AT_EPOCH": 4271, "BSTAR": 0, "MEAN_MOTION_DOT": -2.58e-06, "MEAN_MOTION_DDOT": 0}, "tle": {"line1": "1 39613U 14010B   25355.14952978 -.00000258  00000+0  00000+0 0  9997", "line2": "2 39613   0.0190 327.4725 0001060 327.2965 348.8895  1.00270951 42719"}}, "geometry": {"type": "Point", "coordinates": [-148.9889819278603, -0.030143584984411886]}}, {"type": "Feature", "properties": {"norad_id": 39773, "name": "EUTELSAT 3B", "group": "eutelsat", "lat": 0.08042739073754672, "lon": 74.25328869050897, "alt_km": 35802.16854337033, "timestamp": "2025-12-21T22:41:41.119178+00:00", "meta": {"OBJECT_NAME": "EUTELSAT 3B", "OBJECT_ID": "2014-030A", "EPOCH": "2025-12-21T13:12:47.664288", "MEAN_MOTION": 1.00272705, "ECCENTRICITY": 0.00041373, "INCLINATION": 0.061, "RA_OF_ASC_NODE": 8.9544, "ARG_OF_PERICENTER": 224.6391, "MEAN_ANOMALY": 58.0707, "EPHEMERIS_TYPE": 0, "CLASSIFICATION_TYPE": "U", "NORAD_CAT_ID": 39773, "ELEMENT_SET_NO": 999, "REV_AT_EPOCH": 4228, "BSTAR": 0, "MEAN_MOTION_DOT": 4.3e-07, "MEAN_MOTION_DDOT": 0}, "tle": {"line1": "1 39773U 14030A   25355.55055167  .00000043  00000+0  00000+0 0  9996", "line2": "2 39773   0.0610   8.9544 0004137 224.6391  58.0707  1.00272705 42287"}}, "geometry": {"type": "Point", "coordinates": [74.25328869050897, 0.08042739073754672]}}, {"type": "Feature", "properties": {"norad_id": 40425, "name": "EUTELSAT 115 WEST B", "group": "eutelsat", "lat": 0.003531537332232466, "lon": -43.7387841800687, "alt_km": 35785.45214970376, "timestamp": "2025-12-21T22:41:41.119190+00:00", "meta": {"OBJECT_NAME": "EUTELSAT 115 WEST B", "OBJECT_ID": "2015-010B", "EPOCH": "2025-12-21T04:29:33.223776", "MEAN_MOTION": 1.00269059, "ECCENTRICITY": 3.333e-05, "INCLINATION": 0.0159, "RA_OF_ASC_NODE": 149.3637, "ARG_OF_PERICENTER": 179.3265, "MEAN_ANOMALY": 73.8064, "EPHEMERIS_TYPE": 0, "CLASSIFICATION_TYPE": "U", "NORAD_CAT_ID": 40425, "ELEMENT_SET_NO": 999, "REV_AT_EPOCH": 3960, "BSTAR": 0, "MEAN_MOTION_DOT": -2e-08, "MEAN_MOTION_DDOT": 0}, "tle": {"line1": "1 40425U 15010B   25355.18719009 -.00000002  00000+0  00000+0 0  9998", "line2": "2 40425   0.0159 149.3637 0000333 179.3265  73.8064  1.00269059 39605"}}, "geometry": {"type": "Point", "coordinates": [-43.7387841800687, 0.003531537332232466]}}, {"type": "Feature", "properties": {"norad_id": 40875, "name": "EUTELSAT 8 WEST B", "group": "eutelsat", "lat": 0.07949222395834796, "lon": 63.196130759482735, "alt_km": 35802.20368542626, "timestamp": "2025-12-21T22:41:41.119202+00:00", "meta": {"OBJECT_NAME": "EUTELSAT 8 WEST B", "OBJECT_ID": "2015-039B", "EPOCH": "2025-12-21T09:44:11.764608", "MEAN_MOTION": 1.00271103, "ECCENTRICITY": 0.00042639, "INCLINATION": 0.0633, "RA_OF_ASC_NODE": 0.4404, "ARG_OF_PERICENTER": 270.7946, "MEAN_ANOMALY": 317.0427, "EPHEMERIS_TYPE": 0, "CLASSIFICATION_TYPE": "U", "NORAD_CAT_ID": 40875, "ELEMENT_SET_NO": 999, "REV_AT_EPOCH": 3787, "BSTAR": 0, "MEAN_MOTION_DOT": -4.3e-07, "MEAN_MOTION_DDOT": 0}, "tle": {"line1": "1 40875U 15039B   25355.40569172 -.00000043  00000+0  00000+0 0  9992", "line2": "2 40875   0.0633   0.4404 0004263 270.7946 317.0427  1.00271103 37874"}}, "geometry": {"type": "Point", "coordinates": [63.196130759482735, 0.07949222395834796]}}, {"type": "Feature", "properties": {"norad_id": 41310, "name": "EUTELSAT 9B", "group": "eutelsat", "lat": 0.03110752498116888, "lon": 80.18536193087397, "alt_km": 35804.03185254926, "timestamp": "2025-12-21T22:41:41.119213+00:00", "meta": {"OBJECT_NAME": "EUTELSAT 9B", "OBJECT_ID": "2016-005A", "EPOCH": "2025-12-21T08:06:13.647744", "MEAN_MOTION": 1.00272858, "ECCENTRICITY": 0.00044834, "INCLINATION": 0.0641, "RA_OF_ASC_NODE": 72.0641, "ARG_OF_PERICENTER": 203.714, "MEAN_ANOMALY": 304.9349, "EPHEMERIS_TYPE": 0, "CLASSIFICATION_TYPE": "U", "NORAD_CAT_ID": 41310, "ELEMENT_SET_NO": 999, "REV_AT_EPOCH": 3633, "BSTAR": 0, "MEAN_MOTION_DOT": 8.5e-07, "MEAN_MOTION_DDOT": 0}, "tle": {"line1": "1 41310U 16005A   25355.33765796  .00000085  00000+0  00000+0 0  9998", "line2": "2 41310   0.0641  72.0641 0004483 203.7140 304.9349  1.00272858 36338"}}, "geometry": {"type": "Point", "coordinates": [80.18536193087397, 0.03110752498116888]}}, {"type": "Feature", "properties": {"norad_id": 41382, "name": "EUTELSAT 65 WEST A", "group": "eutelsat", "lat": 0.030253961660766757, "lon": 6.002968394680122, "alt_km": 35786.03017460653, "timestamp": "2025-12-21T22:41:41.119225+00:00", "meta": {"OBJECT_NAME": "EUTELSAT 65 WEST A", "OBJECT_ID": "2016-014A", "EPOCH": "2025-12-21T13:08:12.054336", "MEAN_MOTION": 1.00273642, "ECCENTRICITY": 0.00021455, "INCLINATION": 0.0518, "RA_OF_ASC_NODE": 335.0073, "ARG_OF_PERICENTER": 298.3002, "MEAN_ANOMALY": 308.9127, "EPHEMERIS_TYPE": 0, "CLASSIFICATION_TYPE": "U", "NORAD_CAT_ID": 41382, "ELEMENT_SET_NO": 999, "REV_AT_EPOCH": 3575, "BSTAR": 0, "MEAN_MOTION_DOT": -2.54e-06, "MEAN_MOTION_DDOT": 0}, "tle": {"line1": "1 41382U 16014A   25355.54736174 -.00000254  00000+0  00000+0 0  9997", "line2": "2 41382   0.0518 335.0073 0002145 298.3002 308.9127  1.00273642 35756"}}, "geometry": {"type": "Point", "coordinates": [6.002968394680122, 0.030253961660766757]}}, {"type": "Feature", "properties": {"norad_id": 41589, "name": "EUTELSAT 117 WEST B", "group": "eutelsat", "lat": 0.0119041800518904, "lon": -45.81752808532311, "alt_km": 35785.01141822731, "timestamp": "2025-12-21T22:41:41.119237+00:00", "meta": {"OBJECT_NAME": "EUTELSAT 117 WEST B", "OBJECT_ID": "2016-038B", "EPOCH": "2025-12-21T06:20:43.353888", "MEAN_MOTION": 1.00270341, "ECCENTRICITY": 3.447e-05, "INCLINATION": 0.0057, "RA_OF_ASC_NODE": 161.4405, "ARG_OF_PERICENTER": 148.4194, "MEAN_ANOMALY": 118.4213, "EPHEMERIS_TYPE": 0, "CLASSIFICATION_TYPE": "U", "NORAD_CAT_ID": 41589, "ELEMENT_SET_NO": 999, "REV_AT_EPOCH": 3487, "BSTAR": 0, "MEAN_MOTION_DOT": 1.1e-07, "MEAN_MOTION_DDOT": 0}, "tle": {"line1": "1 41589U 16038B   25355.26439067  .00000011  00000+0  00000+0 0  9992", "line2": "2 41589   0.0057 161.4405 0000344 148.4194 118.4213  1.00270341 34874"}}, "geometry": {"type": "Point", "coordinates": [-45.81752808532311, 0.0119041800518904]}}]}